*******************************************************************************
JPL/HORIZONS              99942 Apophis (2004 MN4)         2026-Jul-07 23:25:59
Rec #:   99942 (+COV) Soln.date: 2024-Jun-25_10:48:08   # obs: 7370 (2004-2022)
 
IAU76/J2000 helio. ecliptic osc. elements (au, days, deg., period=Julian yrs):
 
  EPOCH=  2459215.5 ! 2021-Jan-01.00 (TDB)         Residual RMS= .080135
   EC= .1915216893501022   QR= .7458270478466523   TP= 2459101.0394224627
   OM= 204.0389272089208   W=  126.6520518368553   IN= 3.336751320066756
   A= .9225071817289903    MA= 127.3225632013606   ADIST= 1.099187315611328
   PER= .88606             N= 1.112370442          ANGMOM= .016216289
   DAN= 1.00339            DDN= .79749             L= 330.7375495
   B= 2.6764541            MOID= .0003822          TP= 2020-Sep-08.5394224627
 
Asteroid physical parameters (km, seconds, rotational period in hours):
   GM= n.a.                RAD= .170               ROTPER= 30.56
   H= 19.09                G= .240                 B-V= n.a.
                           ALBEDO= .350            STYP= Sq

Non-default Earth gravity model (EOBL_LIM= au):
   EOBL_LIM= 1.000                                 EOBL_MOD = 2x0 (J2 only)
Asteroid non-gravitational force model (AMRAT= m^2/kg;A1,A2,A3=au/d^2;R0=au):
   AMRAT=  0.
   A1= 4.999999873689E-13  A2= -2.901766720242E-14 A3= 0.
 Non-standard or simulated/proxy model:
   ALN=  1.            NK=  0.       NM=  2.       NN=  5.093    R0=  1.

ASTEROID comments: 
1: soln ref.= JPL#220, PHA  OCC=0       radar(20 delay,30 Dop.)
2: source=ORB
*******************************************************************************


*******************************************************************************
Ephemeris / API_USER Tue Jul  7 23:25:59 2026 Pasadena, USA      / Horizons
*******************************************************************************
Target body name: 99942 Apophis (2004 MN4)        {source: JPL#220}
Center body name: Earth (399)                     {source: DE441}
Center-site name: BODY CENTER
*******************************************************************************
Start time      : A.D. 2029-Mar-29 09:45:00.0000 UT 
Stop  time      : A.D. 2029-Apr-29 09:45:00.0000 UT 
Step-size       : 744 steps
*******************************************************************************
Center geodetic : 0.0, 0.0, 0.0                   {E-lon(deg),Lat(deg),Alt(km)}
Center cylindric: 0.0, 0.0, 0.0                   {E-lon(deg),Dxy(km),Dz(km)}
Center radii    : 6378.137, 6378.137, 6356.752 km {Equator_a, b, pole_c}
Small perturbers: Yes                             {source: SB441-N16}
Output units    : KM-S
Calendar mode   : Mixed Julian/Gregorian
Output type     : GEOMETRIC cartesian states
Output format   : 2 (position and velocity)
EOP file        : eop.260707.p261003
EOP coverage    : DATA-BASED 1962-JAN-20 TO 2026-JUL-07. PREDICTS-> 2026-OCT-02
Reference frame : ICRF
*******************************************************************************
Initial IAU76/J2000 heliocentric ecliptic osculating elements (au, days, deg.):
  EPOCH=  2459215.5 ! 2021-Jan-01.00 (TDB)         Residual RMS= .080135       
   EC= .1915216893501022   QR= .7458270478466523   TP= 2459101.0394224627      
   OM= 204.0389272089208   W=  126.6520518368553   IN= 3.336751320066756       
  Equivalent ICRF heliocentric cartesian coordinates (au, au/d):
   X=-4.098530841632175E-01  Y= 9.070198866066711E-01  Z= 3.267919471115156E-01
  VX=-1.507552412168823E-02 VY=-3.713559927658847E-03 VZ=-1.761867987218290E-03
Asteroid physical parameters (km, seconds, rotational period in hours):        
   GM= n.a.                RAD= .170               ROTPER= 30.56               
   H= 19.09                G= .240                 B-V= n.a.                   
Non-default Earth gravity model (EOBL_LIM= au):                                
   EOBL_LIM= 1.000                                 EOBL_MOD = 2x0 (J2 only)    
Asteroid non-gravitational force model (AMRAT= m^2/kg;A1,A2,A3=au/d^2;R0=au):  
   AMRAT=  0.                                                                  
   A1= 4.999999873689E-13  A2= -2.901766720242E-14 A3= 0.                      
 Non-standard or simulated/proxy model:                                        
   ALN=  1.            NK=  0.       NM=  2.       NN=  5.093    R0=  1.       
*******************************************************************************
JDUT 
   X     Y     Z
   VX    VY    VZ
*******************************************************************************
$$SOE
2462232.197916667 = A.D. 2029-Apr-05 16:45:00.0000 UT~ 
 X =-3.044931194252223E+06 Y =-1.990429296374537E+06 Z =-2.127714231728315E+06
 VX= 4.285975026355448E+00 VY= 2.828029079299228E+00 VZ= 2.990166148314463E+00
2462232.239583333 = A.D. 2029-Apr-05 17:45:00.0000 UT~ 
 X =-3.029503491200328E+06 Y =-1.980248327934429E+06 Z =-2.116949262565887E+06
 VX= 4.284971864519781E+00 VY= 2.828064421578180E+00 VZ= 2.990372134575841E+00
2462232.281250000 = A.D. 2029-Apr-05 18:45:00.0000 UT~ 
 X =-3.014079391408026E+06 Y =-1.970067233091503E+06 Z =-2.106183553368999E+06
 VX= 4.283973218968748E+00 VY= 2.828099303853978E+00 VZ= 2.990577279579329E+00
2462232.322916667 = A.D. 2029-Apr-05 19:45:00.0000 UT~ 
 X =-2.998658878581464E+06 Y =-1.959886013489015E+06 Z =-2.095417107153874E+06
 VX= 4.282979109332718E+00 VY= 2.828133733988526E+00 VZ= 2.990781590577781E+00
2462232.364583333 = A.D. 2029-Apr-05 20:45:00.0000 UT~ 
 X =-2.983241936354220E+06 Y =-1.949704670740336E+06 Z =-2.084649926909208E+06
 VX= 4.281989555458791E+00 VY= 2.828167720067693E+00 VZ= 2.990985075005307E+00
2462232.406250000 = A.D. 2029-Apr-05 21:45:00.0000 UT~ 
 X =-2.967828548291475E+06 Y =-1.939523206428103E+06 Z =-2.073882015597064E+06
 VX= 4.281004577414085E+00 VY= 2.828201270403596E+00 VZ= 2.991187740480166E+00
2462232.447916667 = A.D. 2029-Apr-05 22:45:00.0000 UT~ 
 X =-2.952418697882324E+06 Y =-1.929341622105844E+06 Z =-2.063113376151282E+06
 VX= 4.280024195490524E+00 VY= 2.828234393537532E+00 VZ= 2.991389594808012E+00
2462232.489583333 = A.D. 2029-Apr-05 23:45:00.0000 UT~ 
 X =-2.937012368544340E+06 Y =-1.919159919297434E+06 Z =-2.052344011478715E+06
 VX= 4.279048430208554E+00 VY= 2.828267098242456E+00 VZ= 2.991590645985024E+00
2462232.531250000 = A.D. 2029-Apr-06 00:45:00.0000 UT~ 
 X =-2.921609543620288E+06 Y =-1.908978099490479E+06 Z =-2.041573924454626E+06
 VX= 4.278077302320439E+00 VY= 2.828299393525452E+00 VZ= 2.991790902201082E+00
2462232.572916667 = A.D. 2029-Apr-06 01:45:00.0000 UT~ 
 X =-2.906210206378400E+06 Y =-1.898796164144009E+06 Z =-2.030803117926909E+06
 VX= 4.277110832816297E+00 VY= 2.828331288631109E+00 VZ= 2.991990371843411E+00
2462232.614583333 = A.D. 2029-Apr-06 02:45:00.0000 UT~ 
 X =-2.890814340009302E+06 Y =-1.888614114680938E+06 Z =-2.020031594711090E+06
 VX= 4.276149042927629E+00 VY= 2.828362793044175E+00 VZ= 2.992189063500053E+00
2462232.656250000 = A.D. 2029-Apr-06 03:45:00.0000 UT~ 
 X =-2.875421927627861E+06 Y =-1.878431952491574E+06 Z =-2.009259357592858E+06
 VX= 4.275191954132837E+00 VY= 2.828393916492711E+00 VZ= 2.992386985963504E+00
2462232.697916667 = A.D. 2029-Apr-06 04:45:00.0000 UT~ 
 X =-2.860032952272505E+06 Y =-1.868249678928062E+06 Z =-1.998486409324873E+06
 VX= 4.274239588161418E+00 VY= 2.828424668951037E+00 VZ= 2.992584148234450E+00
2462232.739583333 = A.D. 2029-Apr-06 05:45:00.0000 UT~ 
 X =-2.844647396900177E+06 Y =-1.858067295307823E+06 Z =-1.987712752626905E+06
 VX= 4.273291967000464E+00 VY= 2.828455060643407E+00 VZ= 2.992780559525890E+00
2462232.781250000 = A.D. 2029-Apr-06 06:45:00.0000 UT~ 
 X =-2.829265244389981E+06 Y =-1.847884802912474E+06 Z =-1.976938390186630E+06
 VX= 4.272349112899896E+00 VY= 2.828485102047225E+00 VZ= 2.992976229267116E+00
2462232.822916667 = A.D. 2029-Apr-06 07:45:00.0000 UT~ 
 X =-2.813886477540135E+06 Y =-1.837702202981234E+06 Z =-1.966163324654948E+06
 VX= 4.271411048377364E+00 VY= 2.828514803896418E+00 VZ= 2.993171167107882E+00
2462232.864583333 = A.D. 2029-Apr-06 08:45:00.0000 UT~ 
 X =-2.798511079067647E+06 Y =-1.827519496718444E+06 Z =-1.955387558650039E+06
 VX= 4.270477796225965E+00 VY= 2.828544177185556E+00 VZ= 2.993365382922935E+00
2462232.906250000 = A.D. 2029-Apr-06 09:45:00.0000 UT~ 
 X =-2.783139031605124E+06 Y =-1.817336685286932E+06 Z =-1.944611094752695E+06
 VX= 4.269549379519628E+00 VY= 2.828573233173387E+00 VZ= 2.993558886816519E+00
2462232.947916667 = A.D. 2029-Apr-06 10:45:00.0000 UT~ 
 X =-2.767770317704886E+06 Y =-1.807153769807212E+06 Z =-1.933833935507353E+06
 VX= 4.268625821619487E+00 VY= 2.828601983386751E+00 VZ= 2.993751689126974E+00
2462232.989583333 = A.D. 2029-Apr-06 11:45:00.0000 UT~ 
 X =-2.752404919831306E+06 Y =-1.796970751359090E+06 Z =-1.923056083420347E+06
 VX= 4.267707146181760E+00 VY= 2.828630439624998E+00 VZ= 2.993943800431802E+00
2462233.031250000 = A.D. 2029-Apr-06 12:45:00.0000 UT~ 
 X =-2.737042820365012E+06 Y =-1.786787630980887E+06 Z =-1.912277540960945E+06
 VX= 4.266793377164676E+00 VY= 2.828658613964137E+00 VZ= 2.994135231552661E+00
2462233.072916667 = A.D. 2029-Apr-06 13:45:00.0000 UT~ 
 X =-2.721684001599252E+06 Y =-1.776604409662686E+06 Z =-1.901498310556587E+06
 VX= 4.265884538835085E+00 VY= 2.828686518761145E+00 VZ= 2.994325993560555E+00
2462233.114583333 = A.D. 2029-Apr-06 14:45:00.0000 UT~ 
 X =-2.706328445739925E+06 Y =-1.766421088353842E+06 Z =-1.890718394596823E+06
 VX= 4.264980655777912E+00 VY= 2.828714166658955E+00 VZ= 2.994516097781416E+00
2462233.156250000 = A.D. 2029-Apr-06 15:45:00.0000 UT~ 
 X =-2.690976134902269E+06 Y =-1.756237667956553E+06 Z =-1.879937795428857E+06
 VX= 4.264081752903399E+00 VY= 2.828741570591088E+00 VZ= 2.994705555801710E+00
2462233.197916667 = A.D. 2029-Apr-06 16:45:00.0000 UT~ 
 X =-2.675627051112831E+06 Y =-1.746054149323173E+06 Z =-1.869156515356749E+06
 VX= 4.263187855455138E+00 VY= 2.828768743786483E+00 VZ= 2.994894379474202E+00
